#dP2020  1 16  0  0  0.00000000      96 __u+U ITR00 FIT  IAC
## 2088 345600.00000000   900.00000000 58864 0.0000000000000
+  115   C01C02C03C04C05C06C07C08C09C10C11C12C13C14C16C18C19
+        C20C21C22C23C24C25C26C27C28C29C30C32C33C34C35C36C37
+        E01E02E03E04E05E07E08E09E11E12E13E14E15E18E19E21E24
+        E25E26E27E30E31E33E36G01G02G03G04G05G06G07G08G09G10
+        G11G12G13G14G15G16G17G18G19G20G21G22G23G24G25G26G27
+        G28G29G30G31G32J01J02J03R01R02R03R04R05R07R08R09R11
+        R12R13R14R15R16R17R18R19R20R21R22R23R26  0  0  0  0
++        14 13 14 13 13 10  9 10  9  9  9  9  9  9 10 15  9
++         9  9  9  9  9  9  9  9  9  9  9  9  9  9  9  9  9
++         7  7  7  7  7  7  7  7  7  7  7  7  7  7  8  7  7
++         7  7  7  7  7  7  7  6  6  6  7  6  6  6  6  7  6
++         6  7  6  7  6  6  6  7  6  6  6  7  7  7  7  6  6
++         6  6  6  6  6 10  9  9  8  8  8  8  8  8  8  9  9
++         8  8  8  8  8  8  8  8  8  8  8  8  9  0  0  0  0
%c M  cc GPS ccc cccc cccc cccc cccc ccccc ccccc ccccc ccccc
%c cc cc ccc ccc cccc cccc cccc cccc ccccc ccccc ccccc ccccc
%f  0.0000000  0.000000000  0.00000000000  0.000000000000000
%f  0.0000000  0.000000000  0.00000000000  0.000000000000000
%i    0    0    0    0      0      0      0      0         0
%i    0    0    0    0      0      0      0      0         0
/* INFORMATION & ANALYSIS CENTER (IAC)            RAPID DATA
/* S/V CLOCKS ARE ALIGNED TO GNSS TIME                      
/* G:C1WC2W R:C1PC2P E:C1XC5X C:C2IC6I J:C1CC2S             
/* PCV:IGS14_2086 OL/AL:FES2004  NONE     YN ORB:CoN CLK:CoN
*  2020 01 16 23 15  0.00000000
PC01 -32307.687875  27079.197675   -777.916725     89.700400
PC02   4430.348452  41926.964284   1134.568158    606.324736
PC03 -14787.371801  39521.281124    347.851541    249.150408
PC04 -39607.582444  14401.948821   -362.735610   -429.407727
PC05  21866.036763  36061.975335   1362.006391   -193.780856
PC06  -8670.380161  36165.508217  20597.937075    260.144182
PC07 -15279.644610  22182.102291 -32331.853797     87.643633
PC08 -23405.721897  31898.315048  14146.349522    -85.917419
PC09   -268.315073  41604.138123   8173.605071    266.354045
PC10    632.740639  26598.862090 -32471.358546   -567.328884
PC11   9716.578641 -24495.743418   9329.923611   -125.309758
PC12  15567.417888  -7796.254303  21857.857757    309.810795
PC13 -11926.962356  32310.314291  24222.954659    210.147385
PC14   7495.944792 -14277.740575 -22753.543672   -820.296350
PC16  -6554.059393  37072.954290  19207.521693   -843.115944
PC18   7305.040540  41523.521503   -907.026887     44.386522
PC19   2016.180983  19102.055618  20259.015493    299.887096
PC20 -15401.418384   7596.851141  22012.658486   -568.201474
PC21  24187.050462   8841.945134 -10716.744644     13.582524
PC22  18551.900011  19738.374113   6650.229982   -689.925262
PC23 -11774.192575 -12187.216494  22171.680606   -873.490346
PC24  23973.918302 -13469.679293   4841.711456   -901.997395
PC25   7843.702250 -18440.435924  19425.623714   -483.831687
PC26  25279.975110  -2024.713398 -11689.532363    536.580605
PC27 -15578.283151  -3205.060132 -22938.693799    261.829981
PC28  -7761.819402 -21782.623890 -15618.251745    252.786279
PC29  -3480.681804  27679.227032   -758.065923    174.715480
PC30 -13686.925905  17453.740062 -16942.266349    257.272776
PC32 -24269.602298  -8651.555870  10734.132227   -857.023118
PC33  -2054.581057 -19094.078768 -20250.095507   -792.220225
PC34  13649.518892 -17714.839120  16678.930381   -396.269673
PC35   8468.024623  21619.668861  15510.348152   -774.515306
PC36  -8476.623498  18247.118202 -19314.454773   -845.907587
PC37 -25071.654068    962.334348  12212.115242   -914.850910
PE01  29462.090187   -991.821828   2737.069059   -775.080219
PE02 -29437.928276   1041.975011  -2810.275612    106.243069
PE03 -19444.722944  -2897.101489  22126.486604   -255.848890
PE04   8982.889163 -16982.239029 -22520.159222   -446.885664
PE05 -18615.394918 -21281.134245   8759.810770   -413.470442
PE07   6914.769936  27113.798383   9639.848495   -327.814783
PE08  -8609.477152  17128.092088  22546.646132   6233.780884
PE09  -7218.247413 -27057.182341  -9615.160945   6186.535432
PE11   4141.351894 -25488.977316 -14451.831010    827.610184
PE12  17471.069965 -23479.239718   4393.170268   5997.980431
PE13  -4249.433961  25569.130574  14310.341572    397.457877
PE14 -20783.096985    569.535324 -25158.353987   -870.508985
PE15 -17237.563231  23701.491470  -4143.968099    880.591266
PE18  14621.713512  -2450.699382  18013.295801   -967.192403
PE19  19862.693751   5197.163767 -21326.062863     -1.933093
PE21  22931.461676  10761.106737 -15321.326728   -577.403821
PE24  -2720.293557 -16416.427165  24467.893252   5659.441232
PE25 -22840.589469 -10817.329990  15409.860833   -501.346147
PE26  11496.233455  12347.721374  24333.657553   3638.492854
PE27   2884.160650  16354.028931 -24499.914824    302.218081
PE30 -18951.898131  12216.370740 -19174.320876   4218.939495
PE31  18794.507232 -12330.319926  19269.386461   -471.334513
PE33  20135.401831  -7897.395709  20220.919736   -470.926405
PE36 -11237.220105 -12441.907051 -24380.490459    610.425182
PG01  11705.182703 -20705.280457 -11675.517874   -264.703347
PG02 -21235.657380  12790.189982  -8754.416562   -387.225079
PG03   1603.293466 -15314.359998 -21706.489969    -73.843565
PG04   1598.135555 -25145.804277  -8364.824373    -35.367613
PG05 -21644.630689   4466.429819  14734.002859     -6.195661
PG06 -19268.611099    730.514172 -18227.833552   -184.055203
PG07  -4756.675271 -15683.501368  21098.531644   -193.656581
PG08   7786.484431 -18764.524720  17012.195415    -20.464973
PG09  -6538.350994 -25707.556855   1151.137106   -134.065704
PG10  23402.269563  11656.760568   5409.954103   -211.962254
PG11   9476.908446 -24978.133442   -769.782709   -388.137778
PG12  -6394.917128  13464.102814 -22203.776802    161.577554
PG13 -13091.796104  10998.545171  20178.772245    -19.472642
PG14  15319.154259   4360.596313 -20955.168754    -38.347785
PG15  -6117.086267  20030.768344  15803.439986   -258.122298
PG16  22212.267447  -1078.395267  14656.342381   -114.329561
PG17 -13406.037295 -15459.915247 -16538.197694    199.838973
PG18  16581.093537 -20383.048819  -4022.046261    113.867349
PG19 -14866.942549  -7330.612204 -21043.467267   -211.537755
PG20  16697.647736  14434.824367  14825.311071    527.803411
PG21   7611.723440  14404.555112  21803.735346    -54.715203
PG22  10392.641887 -13116.481265 -20384.786332   -782.151086
PG23   -627.209733 -25320.000460  -6961.446132   -142.642789
PG24 -12138.458510  21625.288402  -9178.591126     -7.677623
PG25   8325.235252  16729.914096 -19200.920563    -15.867197
PG26  25799.280778   3267.355023   5916.910390    128.784203
PG27  13287.015372  -7486.940446  21588.146319   -183.250458
PG28 -22581.598191 -13249.374681   4590.751386    745.175207
PG29   4247.772901  26187.012186   1010.695210     -9.284874
PG30 -14831.619040  -7485.649873  20786.205876   -130.910915
PG31  20998.177742  -2625.400487 -16362.871923    -17.004610
PG32  15089.861526  14036.635125 -16767.250573    186.873477
PJ01 -25772.713063  22311.188088  29884.438318   -325.476877
PJ02 -35162.985826  17074.122642 -11329.755458     -0.794645
PJ03 -19211.985031  30573.923211 -17003.094442     -0.134198
PR01 -13024.548340   1568.672981  21874.403529     55.710739
PR02   3486.054578  17081.954354  18678.368710    407.507523
PR03  15588.219469  19872.052855   3792.915991      8.364410
PR04  18667.930227  11327.153540 -13169.458196     35.602431
PR05  11143.212165  -3547.631204 -22667.383813     43.249090
PR07 -15837.599764 -19715.642340  -3135.323617    -32.079987
PR08 -18703.606585 -11287.340169  13204.185046     13.061021
PR09   4536.176579 -12018.313730  22039.288138    111.813884
PR11 -23927.506918    838.805115   8869.204892    -10.260051
PR12 -22614.797002   8739.122168  -7857.119913     97.493651
PR13  -7985.176472  12051.557297 -21032.250537    -33.625461
PR14  11012.288323   8153.562813 -21503.700836     47.169094
PR15  23599.932732   -378.786504  -9665.998697    105.696569
PR16  22338.303144  -9362.822988   8179.800868     -1.001597
PR17   2222.929054  18651.378024  17255.228364    292.975459
PR18  10097.957981   2925.833755  23262.059197     21.792071
PR19  12977.882979 -13908.142870  17004.157530    -74.381323
PR20   8086.220335 -24145.646164  -1033.979814   -401.687534
PR21  -2564.937972 -18089.703671 -17804.933597    -98.728958
PR22 -10997.548611    316.290823 -23010.499057    -10.090812
PR23 -12009.653908  19043.369733 -11991.911387    280.273193
PR26   9274.242325 -23578.731571   3087.914129   -411.203535
EOF
